      2.10          N: GNSS NAV DATA                        RINEX VERSION / TYPE
fic2rin                                 11/13/2021 00:17:32 PGM / RUN BY / DATE
                                                            END OF HEADER
10 21 11 13  0  0  0.0-2.448055893183e-04-8.412825991400e-12 0.000000000000e+00
    3.100000000000e+01-4.959375000000e+01 4.466614623856e-09 1.942452470074e+00
   -2.544373273849e-06 7.191753713414e-03 4.921108484268e-06 5.153676532745e+03
    5.184000000000e+05-2.253800630569e-07 8.722180401824e-01 4.470348358154e-08
    9.710797954742e-01 2.904375000000e+02-2.577117919740e+00-8.220699567991e-09
   -2.500104139373e-12 1.000000000000e+00 2.183000000000e+03 0.000000000000e+00
    2.400000000000e+00 0.000000000000e+00 2.328306436539e-09 3.100000000000e+01
    5.112000000000e+05 4.000000000000e+00
 8 21 11 13  0  0  0.0-4.393234848976e-05-1.591615728103e-12 0.000000000000e+00
    7.100000000000e+01 8.437500000000e-01 4.348395413837e-09-4.257611239169e-02
   -1.005828380585e-07 6.743645993993e-03 9.290874004364e-06 5.153680667877e+03
    5.184000000000e+05 8.381903171539e-08-1.238304253074e+00 3.725290298462e-09
    9.655548907797e-01 2.016250000000e+02 5.368474279074e-02-8.083550998060e-09
   -3.957307694893e-10 1.000000000000e+00 2.183000000000e+03 0.000000000000e+00
    3.400000000000e+00 0.000000000000e+00 5.122274160385e-09 7.100000000000e+01
    5.112000000000e+05 4.000000000000e+00
 6 21 11 13  0  0  0.0 1.164791174233e-04 9.094947017729e-12 0.000000000000e+00
    9.200000000000e+01 4.103125000000e+01 3.936235388575e-09-1.984638774777e+00
    2.162531018257e-06 2.363397972658e-03 7.282942533493e-06 5.153612220764e+03
    5.184000000000e+05 7.450580596924e-09-1.687648628768e-01 6.891787052155e-08
    9.857724274127e-01 2.536562500000e+02-1.039407107684e+00-7.849969839896e-09
    2.053656971627e-10 1.000000000000e+00 2.183000000000e+03 0.000000000000e+00
    2.400000000000e+00 0.000000000000e+00 4.190951585770e-09 9.200000000000e+01
    5.112000000000e+05 4.000000000000e+00
 4 21 11 13  0  0  0.0-2.019777894020e-04 9.094947017729e-13 0.000000000000e+00
    6.700000000000e+01-6.581250000000e+01 4.345895309698e-09-5.355401935701e-01
   -3.391876816750e-06 1.519773039035e-03 1.034513115883e-05 5.153683799744e+03
    5.184000000000e+05 5.401670932770e-08 1.956452146976e+00 3.725290298462e-09
    9.605513730145e-01 1.775937500000e+02-3.128940826019e+00-7.931044645558e-09
   -7.500312418118e-12 1.000000000000e+00 2.183000000000e+03 0.000000000000e+00
    2.400000000000e+00 0.000000000000e+00-4.190951585770e-09 3.230000000000e+02
    5.112000000000e+05 4.000000000000e+00
 9 21 11 13  0  0  0.0-3.617485053837e-04 2.273736754432e-13 0.000000000000e+00
    5.000000000000e+01-6.706250000000e+01 4.534117435619e-09 2.706223335350e-01
   -3.591179847717e-06 2.347166766413e-03 9.983777999878e-06 5.153679718018e+03
    5.184000000000e+05-1.117587089539e-08 1.904242144106e+00-3.911554813385e-08
    9.534704003950e-01 1.813750000000e+02 1.829656341079e+00-8.048906697843e-09
   -3.714440435639e-11 1.000000000000e+00 2.183000000000e+03 0.000000000000e+00
    2.400000000000e+00 0.000000000000e+00 1.396983861923e-09 5.000000000000e+01
    5.112000000000e+05 4.000000000000e+00
27 21 11 13  0  0  0.0-2.184309996665e-04-4.661160346586e-12 0.000000000000e+00
    2.200000000000e+01 9.656250000000e+00 4.179459805563e-09-1.587764210352e-01
    4.712492227554e-07 9.671754552983e-03 8.953735232353e-06 5.153650945663e+03
    5.184000000000e+05 3.166496753693e-08-1.219645695573e+00 9.499490261078e-08
    9.742156071904e-01 2.114375000000e+02 6.275453103411e-01-8.068550373224e-09
   -3.821587755898e-10 1.000000000000e+00 2.183000000000e+03 0.000000000000e+00
    2.400000000000e+00 0.000000000000e+00 1.862645149231e-09 2.200000000000e+01
    5.112000000000e+05 4.000000000000e+00
20 21 11 13  0  0  0.0 5.181576125324e-04-2.273736754432e-13 0.000000000000e+00
    2.200000000000e+01-3.456250000000e+01 5.106284125801e-09-1.230882925249e+00
   -1.758337020874e-06 5.508691654541e-03 3.859400749207e-06 5.153686422348e+03
    5.184000000000e+05-1.862645149231e-09 7.236324015770e-01-1.266598701477e-07
    9.404435625521e-01 2.942500000000e+02 3.029156209338e+00-8.520712064716e-09
    1.742929742877e-10 1.000000000000e+00 2.183000000000e+03 0.000000000000e+00
    2.400000000000e+00 0.000000000000e+00-8.381903171539e-09 2.200000000000e+01
    5.112000000000e+05 4.000000000000e+00
12 21 11 13  0  0  0.0-1.254621893167e-04-5.570655048359e-12 0.000000000000e+00
    9.600000000000e+01 1.437500000000e+01 4.482329564161e-09 2.572876536944e+00
    5.885958671570e-07 8.341008331627e-03 5.645677447319e-06 5.153652698517e+03
    5.184000000000e+05-2.421438694000e-08-2.195236126842e+00-1.452863216400e-07
    9.715150267690e-01 2.723437500000e+02 1.229344718091e+00-7.982832517017e-09
   -2.653681965077e-10 1.000000000000e+00 2.183000000000e+03 0.000000000000e+00
    3.400000000000e+00 0.000000000000e+00-1.257285475731e-08 9.600000000000e+01
    5.112000000000e+05 4.000000000000e+00
15 21 11 13  0  0  0.0-1.069172285497e-04 2.842170943040e-12 0.000000000000e+00
    6.600000000000e+01-5.656250000000e+01 5.209502710984e-09-1.063854214050e+00
   -2.687796950340e-06 1.387375185732e-02 8.655712008476e-06 5.153701366425e+03
    5.184000000000e+05 1.210719347000e-07 1.800660886354e+00 3.017485141754e-07
    9.292099287290e-01 1.933125000000e+02 1.053570372475e+00-8.460352407637e-09
   -5.178787145843e-11 1.000000000000e+00 2.183000000000e+03 0.000000000000e+00
    2.400000000000e+00 0.000000000000e+00-1.071020960808e-08 6.600000000000e+01
    5.112000000000e+05 4.000000000000e+00
31 21 11 13  0  0  0.0-1.498493365943e-04-1.932676241267e-12 0.000000000000e+00
    5.400000000000e+01 4.650000000000e+01 4.770555855657e-09 2.819522213697e+00
    2.415850758553e-06 1.036006177310e-02 9.085983037949e-06 5.153642831802e+03
    5.184000000000e+05-1.229345798492e-07 2.993942823199e+00-6.519258022308e-08
    9.558140800073e-01 2.025000000000e+02 3.306837080181e-01-7.942116535318e-09
    3.142988060926e-10 1.000000000000e+00 2.183000000000e+03 0.000000000000e+00
    2.400000000000e+00 0.000000000000e+00-1.303851604462e-08 5.400000000000e+01
    5.112000000000e+05 4.000000000000e+00
30 21 11 13  0  0  0.0-4.908405244350e-04-3.183231456205e-12 0.000000000000e+00
    3.000000000000e+01 4.609375000000e+01 5.177358514906e-09-3.068229952482e+00
    2.421438694000e-06 5.346581572667e-03 8.927658200264e-06 5.153619884491e+03
    5.184000000000e+05-4.097819328308e-08 2.990811909332e+00-8.381903171539e-08
    9.367253485193e-01 1.978437500000e+02-2.744639248121e+00-8.193555580192e-09
    3.210848030423e-10 1.000000000000e+00 2.183000000000e+03 0.000000000000e+00
    2.400000000000e+00 0.000000000000e+00 3.725290298462e-09 3.000000000000e+01
    5.112000000000e+05 4.000000000000e+00
26 21 11 13  0  0  0.0 1.547401770949e-04 3.865352482535e-12 0.000000000000e+00
    2.800000000000e+01 2.234375000000e+01 5.424511666970e-09 1.737067133784e+00
    1.333653926849e-06 6.426839507185e-03 5.492940545082e-06 5.153649425507e+03
    5.184000000000e+05-2.235174179077e-08-2.316077412892e+00 1.806765794754e-07
    9.398679042879e-01 2.631875000000e+02 3.078349157256e-01-8.585357614605e-09
   -2.246522148093e-10 1.000000000000e+00 2.183000000000e+03 0.000000000000e+00
    2.400000000000e+00 0.000000000000e+00 6.984919309616e-09 2.800000000000e+01
    5.112000000000e+05 4.000000000000e+00
29 21 11 13  0  0  0.0-4.397695884109e-04-5.229594535194e-12 0.000000000000e+00
    7.700000000000e+01 1.137500000000e+01 3.895162249142e-09-1.195385648153e-01
    4.898756742477e-07 1.839856500737e-03 8.855015039444e-06 5.153558462143e+03
    5.184000000000e+05-5.587935447693e-09-1.144976256057e+00-2.793967723846e-08
    9.825456104885e-01 2.206875000000e+02 2.383088839067e+00-7.777109662120e-09
   -2.739399821284e-10 1.000000000000e+00 2.183000000000e+03 0.000000000000e+00
    2.400000000000e+00 0.000000000000e+00-1.024454832077e-08 7.700000000000e+01
    5.112000000000e+05 4.000000000000e+00
32 21 11 13  0  0  0.0-2.126256003976e-05-4.661160346586e-12 0.000000000000e+00
    7.500000000000e+01-5.406250000000e+01 4.502330397276e-09 5.795187382302e-01
   -2.916902303696e-06 5.191993317567e-03 1.052021980286e-05 5.153745059967e+03
    5.184000000000e+05-7.823109626770e-08 1.915023064763e+00 8.754432201385e-08
    9.573713987273e-01 1.754062500000e+02-2.389708707223e+00-8.053549748387e-09
   -5.214502919263e-11 1.000000000000e+00 2.183000000000e+03 0.000000000000e+00
    2.400000000000e+00 0.000000000000e+00 4.656612873077e-10 7.500000000000e+01
    5.112000000000e+05 4.000000000000e+00
22 21 11 13  0  0  0.0-4.662573337555e-04 9.094947017729e-12 0.000000000000e+00
    6.500000000000e+01-3.934375000000e+01 5.275576891810e-09-1.266315026418e+00
   -1.948326826096e-06 6.731415167451e-03 3.892928361893e-06 5.153681692123e+03
    5.184000000000e+05-1.117587089539e-07 7.696069662936e-01 4.097819328308e-08
    9.371188237434e-01 2.929375000000e+02-8.796545808927e-01-8.707505559701e-09
    1.321483616526e-10 1.000000000000e+00 2.183000000000e+03 0.000000000000e+00
    2.400000000000e+00 0.000000000000e+00-1.769512891769e-08 6.500000000000e+01
    5.112000000000e+05 4.000000000000e+00
19 21 11 13  0  0  0.0 7.846625521779e-05 5.002220859751e-12 0.000000000000e+00
    5.300000000000e+01-4.687500000000e-01 4.024096191187e-09 2.248132314363e+00
    5.774199962616e-08 8.952244766988e-03 8.855015039444e-06 5.153665342331e+03
    5.184000000000e+05 1.247972249985e-07-1.112797510609e+00 1.676380634308e-08
    9.792802617651e-01 2.163125000000e+02 1.972741770510e+00-7.692463279115e-09
   -3.528718413857e-10 1.000000000000e+00 2.183000000000e+03 0.000000000000e+00
    2.400000000000e+00 0.000000000000e+00-1.583248376846e-08 5.300000000000e+01
    5.112000000000e+05 4.000000000000e+00
